H1 CPF  1  DGF 2022 08 12 11  7241 larets     NONE      
H2   304206 5557    27944 2022 08 12 00 00 00 2022 08 19 00 00 00    30 1 1  0 0 0
H5  0.0650
H9
10 0 59805  72000.000000  0       -674995.495       6432369.566      -2859759.976
10 0 59805  72030.000000  0       -634754.109       6523224.054      -2654827.424
10 0 59805  72060.000000  0       -593488.893       6607311.314      -2447193.534
10 0 59805  72090.000000  0       -551271.159       6684539.965      -2237068.786
10 0 59805  72120.000000  0       -508173.595       6754825.846      -2024666.337
10 0 59805  72150.000000  0       -464270.164       6818092.122      -1810201.811
10 0 59805  72180.000000  0       -419635.994       6874269.381      -1593893.077
10 0 59805  72210.000000  0       -374347.267       6923295.715      -1375960.024
10 0 59805  72240.000000  0       -328481.112       6965116.806      -1156624.342
10 0 59805  72270.000000  0       -282115.492       6999685.991       -936109.285
10 0 59805  72300.000000  0       -235329.089       7026964.324       -714639.447
10 0 59805  72330.000000  0       -188201.191       7046920.632       -492440.527
10 0 59805  72360.000000  0       -140811.576       7059531.555       -269739.091
10 0 59805  72390.000000  0        -93240.397       7064781.584        -46762.340
10 0 59805  72420.000000  0        -45568.059       7062663.087        176262.133
10 0 59805  72450.000000  0          2124.891       7053176.324        399106.581
10 0 59805  72480.000000  0         49757.887       7036329.451        621543.345
10 0 59805  72510.000000  0         97250.460       7012138.524        843345.091
10 0 59805  72540.000000  0        144522.354       6980627.477       1064285.053
10 0 59805  72570.000000  0        191493.646       6941828.105       1284137.273
10 0 59805  72600.000000  0        238084.859       6895780.032       1502676.837
10 0 59805  72630.000000  0        284217.079       6842530.668       1719680.114
10 0 59805  72660.000000  0        329812.072       6782135.159       1934924.987
10 0 59805  72690.000000  0        374792.395       6714656.329       2148191.092
10 0 59805  72720.000000  0        419081.515       6640164.612       2359260.040
10 0 59805  72750.000000  0        462603.913       6558737.982       2567915.652
10 0 59805  72780.000000  0        505285.197       6470461.872       2773944.183
10 0 59805  72810.000000  0        547052.210       6375429.079       2977134.560
10 0 59805  72840.000000  0        587833.141       6273739.660       3177278.598
10 0 59805  72870.000000  0        627557.629       6165500.814       3374171.215
10 0 59805  72900.000000  0        666156.872       6050826.771       3567610.639
10 0 59805  72930.000000  0        703563.727       5929838.681       3757398.619
10 0 59805  72960.000000  0        739712.816       5802664.486       3943340.646
10 0 59805  72990.000000  0        774540.614       5669438.774       4125246.168
10 0 59805  73020.000000  0        807985.546       5530302.623       4302928.799
10 0 59805  73050.000000  0        839988.075       5385403.427       4476206.509
10 0 59805  73080.000000  0        870490.788       5234894.722       4644901.808
10 0 59805  73110.000000  0        899438.478       5078936.015       4808841.910
10 0 59805  73140.000000  0        926778.229       4917692.621       4967858.909
10 0 59805  73170.000000  0        952459.493       4751335.479       5121789.958
10 0 59805  73200.000000  0        976434.172       4580040.967       5270477.434
10 0 59805  73230.000000  0        998656.690       4403990.705       5413769.094
10 0 59805  73260.000000  0       1019084.064       4223371.357       5551518.238
10 0 59805  73290.000000  0       1037675.968       4038374.430       5683583.849
10 0 59805  73320.000000  0       1054394.789       3849196.060       5809830.747
10 0 59805  73350.000000  0       1069205.692       3656036.799       5930129.722
10 0 59805  73380.000000  0       1082076.668       3459101.394       6044357.662
10 0 59805  73410.000000  0       1092978.583       3258598.564       6152397.681
10 0 59805  73440.000000  0       1101885.228       3054740.774       6254139.231
10 0 59805  73470.000000  0       1108773.358       2847744.006       6349478.215
10 0 59805  73500.000000  0       1113622.729       2637827.521       6438317.091
10 0 59805  73530.000000  0       1116416.136       2425213.628       6520564.970
10 0 59805  73560.000000  0       1117139.441       2210127.441       6596137.711
10 0 59805  73590.000000  0       1115781.596       1992796.629       6664957.998
10 0 59805  73620.000000  0       1112334.671       1773451.177       6726955.417
10 0 59805  73650.000000  0       1106793.863       1552323.137       6782066.527
10 0 59805  73680.000000  0       1099157.517       1329646.377       6830234.915
10 0 59805  73710.000000  0       1089427.130       1105656.339       6871411.254
10 0 59805  73740.000000  0       1077607.358        880589.782       6905553.354
10 0 59805  73770.000000  0       1063706.017        654684.538       6932626.197
10 0 59805  73800.000000  0       1047734.076        428179.257       6952601.981
10 0 59805  73830.000000  0       1029705.655        201313.154       6965460.149
10 0 59805  73860.000000  0       1009638.008        -25674.248       6971187.412
10 0 59805  73890.000000  0        987551.507       -252543.374       6969777.766
10 0 59805  73920.000000  0        963469.622       -479054.859       6961232.494
10 0 59805  73950.000000  0        937418.894       -704969.801       6945560.164
10 0 59805  73980.000000  0        909428.911       -930050.009       6922776.620
10 0 59805  74010.000000  0        879532.270      -1154058.261       6892904.972
10 0 59805  74040.000000  0        847764.540      -1376758.558       6855975.573
10 0 59805  74070.000000  0        814164.219      -1597916.372       6812025.990
10 0 59805  74100.000000  0        778772.691      -1817298.901       6761100.967
10 0 59805  74130.000000  0        741634.175      -2034675.313       6703252.385
10 0 59805  74160.000000  0        702795.672      -2249816.997       6638539.213
10 0 59805  74190.000000  0        662306.908      -2462497.812       6567027.450
10 0 59805  74220.000000  0        620220.265      -2672494.332       6488790.051
10 0 59805  74250.000000  0        576590.725      -2879586.079       6403906.856
10 0 59805  74280.000000  0        531475.792      -3083555.759       6312464.501
10 0 59805  74310.000000  0        484935.426      -3284189.485       6214556.343
10 0 59805  74340.000000  0        437031.968      -3481277.011       6110282.361
10 0 59805  74370.000000  0        387830.060      -3674611.957       5999749.066
10 0 59805  74400.000000  0        337396.561      -3863992.027       5883069.389
10 0 59805  74430.000000  0        285800.462      -4049219.230       5760362.570
10 0 59805  74460.000000  0        233112.800      -4230100.085       5631754.044
10 0 59805  74490.000000  0        179406.563      -4406445.837       5497375.314
10 0 59805  74520.000000  0        124756.602      -4578072.653       5357363.823
10 0 59805  74550.000000  0         69239.525      -4744801.833       5211862.823
10 0 59805  74580.000000  0         12933.601      -4906460.001       5061021.228
10 0 59805  74610.000000  0        -44081.344      -5062879.299       4904993.460
10 0 59805  74640.000000  0       -101724.038      -5213897.572       4743939.297
10 0 59805  74670.000000  0       -159911.870      -5359358.546       4578023.701
10 0 59805  74700.000000  0       -218561.001      -5499111.994       4407416.649
10 0 59805  74730.000000  0       -277586.476      -5633013.901       4232292.960
10 0 59805  74760.000000  0       -336902.347      -5760926.619       4052832.113
10 0 59805  74790.000000  0       -396421.783      -5882719.020       3869218.062
10 0 59805  74820.000000  0       -456057.192      -5998266.633       3681639.047
10 0 59805  74850.000000  0       -515720.342      -6107451.787       3490287.395
10 0 59805  74880.000000  0       -575322.483      -6210163.733       3295359.320
10 0 59805  74910.000000  0       -634774.467      -6306298.766       3097054.715
10 0 59805  74940.000000  0       -693986.875      -6395760.333       2895576.941
10 0 59805  74970.000000  0       -752870.135      -6478459.132       2691132.616
10 0 59805  75000.000000  0       -811334.648      -6554313.206       2483931.397
10 0 59805  75030.000000  0       -869290.914      -6623248.033       2274185.769
10 0 59805  75060.000000  0       -926649.658      -6685196.608       2062110.816
10 0 59805  75090.000000  0       -983321.959      -6740099.517       1847923.999
10 0 59805  75120.000000  0      -1039219.377      -6787904.999       1631844.910
10 0 59805  75150.000000  0      -1094254.085      -6828568.990       1414095.047
10 0 59805  75180.000000  0      -1148338.985      -6862055.163       1194897.570
10 0 59805  75210.000000  0      -1201387.838      -6888334.962        974477.069
10 0 59805  75240.000000  0      -1253315.381      -6907387.620        753059.325
10 0 59805  75270.000000  0      -1304037.454      -6919200.174        530871.067
10 0 59805  75300.000000  0      -1353471.119      -6923767.471        308139.736
10 0 59805  75330.000000  0      -1401534.777      -6921092.158         85093.238
10 0 59805  75360.000000  0      -1448148.284      -6911184.669       -138040.293
10 0 59805  75390.000000  0      -1493233.073      -6894063.202       -361032.735
10 0 59805  75420.000000  0      -1536712.259      -6869753.682       -583656.222
10 0 59805  75450.000000  0      -1578510.755      -6838289.725       -805683.381
10 0 59805  75480.000000  0      -1618555.381      -6799712.584      -1026887.569
10 0 59805  75510.000000  0      -1656774.967      -6754071.087      -1247043.114
10 0 59805  75540.000000  0      -1693100.462      -6701421.577      -1465925.547
10 0 59805  75570.000000  0      -1727465.032      -6641827.827      -1683311.838
99
